NORAD_CAT_ID,OBJECT_NAME,OBJECT_TYPE,EPOCH,MEAN_MOTION,ECCENTRICITY,INCLINATION,RA_OF_ASC_NODE,ARG_OF_PERICENTER,MEAN_ANOMALY,BSTAR,MEAN_MOTION_DOT,MEAN_MOTION_DDOT,TLE_LINE0,TLE_LINE1,TLE_LINE2,SEMIMAJOR_AXIS,PERIOD,APOGEE,PERIGEE,DECAYED
55420.0,STARLINK-5604,PAYLOAD,2024-03-28 14:21:45,14.98365371,0.0002933,70.001,37.3936,272.6931,87.3892,0.00048578,5.713e-05,0.0,0 STARLINK-5604,1 55420U 23014AF  24088.59843760  .00005713  00000-0  48578-3 0  9991,2 55420  70.0010  37.3936 0002933 272.6931  87.3892 14.98365371 66033,6950.084,96.105,573.987,569.91,0.0
55420.0,STARLINK-5604,PAYLOAD,2024-03-28 22:22:25,14.98353139,0.0002476,70.0019,36.5515,271.835,88.2525,0.00062811,7.414e-05,0.0,0 STARLINK-5604,1 55420U 23014AF  24088.93223673  .00007414  00000-0  62811-3 0  9990,2 55420  70.0019  36.5515 0002476 271.8350  88.2525 14.98353139 66081,6950.121,96.106,573.707,570.265,0.0
55420.0,STARLINK-5604,PAYLOAD,2024-03-29 04:47:00,14.9832487,0.0003009,70.0011,35.8797,274.9231,85.1584,-0.00017022,-2.123e-05,0.0,0 STARLINK-5604,1 55420U 23014AF  24089.19931459 -.00002123  00000-0 -17022-3 0  9995,2 55420  70.0011  35.8797 0003009 274.9231  85.1584 14.98324870 65183,6950.209,96.107,574.165,569.982,0.0
55420.0,STARLINK-5604,PAYLOAD,2024-03-29 06:23:08,14.98324993,0.0002997,70.0011,35.7114,271.8324,88.2492,-0.00016979,-2.118e-05,0.0,0 STARLINK-5604,1 55420U 23014AF  24089.26607411 -.00002118  00000-0 -16979-3 0  9995,2 55420  70.0011  35.7114 0002997 271.8324  88.2492 14.98324993 66133,6950.208,96.107,574.156,569.99,0.0
55420.0,STARLINK-5604,PAYLOAD,2024-03-29 19:12:13,14.98331999,0.0002885,70.0015,34.3638,271.569,88.5139,-0.00027442,-3.366e-05,0.0,0 STARLINK-5604,1 55420U 23014AF  24089.80015203 -.00003366  00000-0 -27442-3 0  9990,2 55420  70.0015  34.3638 0002885 271.5690  88.5139 14.98331999 65271,6950.187,96.107,574.057,570.047,0.0
55420.0,STARLINK-5604,PAYLOAD,2024-03-29 22:24:29,14.98332884,0.0002899,70.0016,34.0273,271.6363,88.4464,-0.00025444,-3.128e-05,0.0,0 STARLINK-5604,1 55420U 23014AF  24089.93367029 -.00003128  00000-0 -25444-3 0  9996,2 55420  70.0016  34.0273 0002899 271.6363  88.4464 14.98332884 66238,6950.184,96.107,574.064,570.034,0.0
55420.0,STARLINK-5604,PAYLOAD,2024-03-30 04:49:00,14.98338167,0.0002899,70.0014,33.3548,271.829,88.2537,-0.00021928,-2.709e-05,0.0,0 STARLINK-5604,1 55420U 23014AF  24090.20070458 -.00002709  00000-0 -21928-3 0  9992,2 55420  70.0014  33.3548 0002899 271.8290  88.2537 14.98338167 65333,6950.168,96.106,574.047,570.018,0.0
55420.0,STARLINK-5604,PAYLOAD,2024-03-30 06:25:08,14.98339013,0.0002899,70.0015,33.1865,271.7097,88.373,-0.00020505,-2.539e-05,0.0,0 STARLINK-5604,1 55420U 23014AF  24090.26746316 -.00002539  00000-0 -20505-3 0  9992,2 55420  70.0015  33.1865 0002899 271.7097  88.3730 14.98339013 66280,6950.165,96.106,574.045,570.015,0.0
55420.0,STARLINK-5604,PAYLOAD,2024-03-30 20:50:20,14.98391114,0.0003078,70.0019,31.6717,279.2564,80.8247,-0.0012039,-0.00014451,0.0,0 STARLINK-5604,1 55420U 23014AF  24090.86829273 -.00014451  00000-0 -12039-2 0  9990,2 55420  70.0019  31.6717 0003078 279.2564  80.8247 14.98391114 65431,6950.004,96.103,574.008,569.73,0.0
55420.0,STARLINK-5604,PAYLOAD,2024-03-30 22:26:28,14.98383538,0.0003507,70.0019,31.5034,276.201,83.875,-0.0010893,-0.00013085,0.0,0 STARLINK-5604,1 55420U 23014AF  24090.93505095 -.00013085  00000-0 -10893-2 0  9999,2 55420  70.0019  31.5034 0003507 276.2010  83.8750 14.98383538 66380,6950.027,96.104,574.33,569.455,0.0
55420.0,STARLINK-5604,PAYLOAD,2024-03-31 04:51:01,14.98318308,0.0002742,70.0019,30.8304,271.9564,88.1281,0.00013938,1.57e-05,0.0,0 STARLINK-5604,1 55420U 23014AF  24091.20210232  .00001570  00000-0  13938-3 0  9994,2 55420  70.0019  30.8304 0002742 271.9564  88.1281 14.98318308 65488,6950.229,96.108,574.0,570.188,0.0
55420.0,STARLINK-5604,PAYLOAD,2024-03-31 12:51:41,14.98315484,0.0002663,70.0019,29.9889,271.353,88.7324,0.00029484,3.425e-05,0.0,0 STARLINK-5604,1 55420U 23014AF  24091.53590251  .00003425  00000-0  29484-3 0  9996,2 55420  70.0019  29.9889 0002663 271.3530  88.7324 14.98315484 66470,6950.238,96.108,573.954,570.252,0.0
55420.0,STARLINK-5604,PAYLOAD,2024-03-31 20:52:21,14.98331511,0.000279,70.0017,29.1474,270.082,90.0019,0.00011551,1.286e-05,0.0,0 STARLINK-5604,1 55420U 23014AF  24091.86969719  .00001286  00000-0  11551-3 0  9990,2 55420  70.0017  29.1474 0002790 270.0820  90.0019 14.98331511 65586,6950.188,96.107,573.992,570.114,0.0
55420.0,STARLINK-5604,PAYLOAD,2024-03-31 22:28:29,14.9833149,0.0002797,70.0017,28.9791,269.9783,90.1056,0.00011296,1.255e-05,0.0,0 STARLINK-5604,1 55420U 23014AF  24091.93645720  .00001255  00000-0  11296-3 0  9993,2 55420  70.0017  28.9791 0002797 269.9783  90.1056 14.98331490 66531,6950.188,96.107,573.997,570.109,0.0
55420.0,STARLINK-5604,PAYLOAD,2024-04-01 12:53:43,14.9832662,0.0002258,70.0021,27.4647,274.3415,85.7486,3.6417e-05,3.42e-06,0.0,0 STARLINK-5604,1 55420U 23014AF  24092.53730372  .00000342  00000-0  36417-4 0  9997,2 55420  70.0021  27.4647 0002258 274.3415  85.7486 14.98326620 65685,6950.203,96.107,573.638,570.499,0.0
55420.0,STARLINK-5604,PAYLOAD,2024-04-02 12:55:44,14.98324818,0.0002855,70.0018,24.9403,269.1255,90.9576,-9.1403e-05,-1.183e-05,0.0,0 STARLINK-5604,1 55420U 23014AF  24093.53870765 -.00001183  00000-0 -91403-4 0  9991,2 55420  70.0018  24.9403 0002855 269.1255  90.9576 14.98324818 65832,6950.209,96.107,574.058,570.09,0.0
55420.0,STARLINK-5604,PAYLOAD,2024-04-02 20:56:24,14.98326189,0.0002885,70.002,24.0993,269.5022,90.5807,-0.0001009,-1.297e-05,0.0,0 STARLINK-5604,1 55420U 23014AF  24093.87250771 -.00001297  00000-0 -10090-3 0  9995,2 55420  70.0020  24.0993 0002885 269.5022  90.5807 14.98326189 66825,6950.205,96.107,574.075,570.065,0.0
55420.0,STARLINK-5604,PAYLOAD,2024-04-03 12:57:45,14.98331782,0.0002908,70.0016,22.4142,267.3959,92.6868,-9.3691e-05,-1.211e-05,0.0,0 STARLINK-5604,1 55420U 23014AF  24094.54010437 -.00001211  00000-0 -93691-4 0  9998,2 55420  70.0016  22.4142 0002908 267.3959  92.6868 14.98331782 65980,6950.187,96.107,574.073,570.031,0.0
55420.0,STARLINK-5604,PAYLOAD,2024-04-03 19:22:17,14.98311652,0.0003011,70.0015,21.7408,267.682,92.3994,0.00025381,2.935e-05,0.0,0 STARLINK-5604,1 55420U 23014AF  24094.80714811  .00002935  00000-0  25381-3 0  9996,2 55420  70.0015  21.7408 0003011 267.6820  92.3994 14.98311652 66029,6950.25,96.108,574.207,570.022,0.0
55420.0,STARLINK-5604,PAYLOAD,2024-04-04 03:22:57,14.98329765,0.0003004,70.0015,20.8998,267.9012,92.1803,5.643e-05,5.8e-06,0.0,0 STARLINK-5604,1 55420U 23014AF  24095.14094282  .00000580  00000-0  56430-4 0  9991,2 55420  70.0015  20.8998 0003004 267.9012  92.1803 14.98329765 66077,6950.194,96.107,574.146,569.971,0.0
55420.0,STARLINK-5604,PAYLOAD,2024-04-04 04:59:05,14.9832997,0.0003002,70.0015,20.7314,267.9226,92.159,5.787e-05,5.98e-06,0.0,0 STARLINK-5604,1 55420U 23014AF  24095.20770268  .00000598  00000-0  57870-4 0  9991,2 55420  70.0015  20.7314 0003002 267.9226  92.1590 14.98329970 67020,6950.193,96.107,574.144,569.972,0.0
55420.0,STARLINK-5604,PAYLOAD,2024-04-04 21:00:26,14.98328673,0.0003009,70.0015,19.0483,267.994,92.0874,8.6647e-05,9.41e-06,0.0,0 STARLINK-5604,1 55420U 23014AF  24095.87530314  .00000941  00000-0  86647-4 0  9996,2 55420  70.0015  19.0483 0003009 267.9940  92.0874 14.98328673 67122,6950.197,96.107,574.153,569.971,0.0
55420.0,STARLINK-5604,PAYLOAD,2024-04-05 03:24:58,14.98334422,0.0002998,70.0014,18.3752,267.9398,92.1418,0.00010654,1.179e-05,0.0,0 STARLINK-5604,1 55420U 23014AF  24096.14233874  .00001179  00000-0  10654-3 0  9996,2 55420  70.0014  18.3752 0002998 267.9398  92.1418 14.98334422 66229,6950.179,96.107,574.128,569.961,0.0
55420.0,STARLINK-5604,PAYLOAD,2024-04-05 11:25:38,14.98332206,0.0002955,70.0017,17.5333,268.8434,91.2387,5.0558e-05,5.1e-06,0.0,0 STARLINK-5604,1 55420U 23014AF  24096.47614085  .00000510  00000-0  50558-4 0  9995,2 55420  70.0017  17.5333 0002955 268.8434  91.2387 14.98332206 67215,6950.186,96.107,574.105,569.997,0.0
55420.0,STARLINK-5604,PAYLOAD,2024-04-05 21:02:26,14.98332793,0.0002869,70.0019,16.5238,269.3244,90.7586,8.479e-06,8e-08,0.0,0 STARLINK-5604,1 55420U 23014AF  24096.87670110  .00000008  00000-0  84790-5 0  9998,2 55420  70.0019  16.5238 0002869 269.3244  90.7586 14.98332793 67271,6950.184,96.107,574.043,570.055,0.0
55420.0,STARLINK-5604,PAYLOAD,2024-04-06 03:26:58,14.98370793,0.0002649,70.0018,15.851,275.1972,84.8885,-0.00053479,-6.475e-05,0.0,0 STARLINK-5604,1 55420U 23014AF  24097.14372843 -.00006475  00000-0 -53479-3 0  9995,2 55420  70.0018  15.8510 0002649 275.1972  84.8885 14.98370793 66372,6950.067,96.104,573.773,570.091,0.0
55420.0,STARLINK-5604,PAYLOAD,2024-04-06 11:27:39,14.98332539,0.0002749,70.0016,15.0092,267.5877,92.4968,-1.2715e-05,-2.45e-06,0.0,0 STARLINK-5604,1 55420U 23014AF  24097.47753992 -.00000245  00000-0 -12715-4 0  9997,2 55420  70.0016  15.0092 0002749 267.5877  92.4968 14.98332539 66426,6950.185,96.107,573.961,570.139,0.0
55420.0,STARLINK-5604,PAYLOAD,2024-04-06 22:40:36,14.98327525,0.0002596,70.0023,13.8318,262.0082,98.0782,-4.7556e-05,-6.6e-06,0.0,0 STARLINK-5604,1 55420U 23014AF  24097.94486361 -.00000660  00000-0 -47556-4 0  9994,2 55420  70.0023  13.8318 0002596 262.0082  98.0782 14.98327525 67436,6950.201,96.107,573.87,570.261,0.0
55420.0,STARLINK-5604,PAYLOAD,2024-04-07 11:29:40,14.98343701,0.0002769,70.0018,12.484,270.4122,89.672,-0.00033582,-4.099e-05,0.0,0 STARLINK-5604,1 55420U 23014AF  24098.47894070 -.00004099  00000-0 -33582-3 0  9996,2 55420  70.0018  12.4840 0002769 270.4122  89.6720 14.98343701 67516,6950.151,96.106,573.94,570.091,0.0
55420.0,STARLINK-5604,PAYLOAD,2024-04-07 22:42:37,14.98328896,0.000287,70.0014,11.3054,270.5514,89.5316,-1.4542e-05,-2.66e-06,0.0,0 STARLINK-5604,1 55420U 23014AF  24098.94626223 -.00000266  00000-0 -14542-4 0  9999,2 55420  70.0014  11.3054 0002870 270.5514  89.5316 14.98328896 67581,6950.196,96.107,574.056,570.067,0.0
